*******************************************************************************
Ephemeris / WWW_USER Tue Mar 11 05:38:54 2025 Pasadena, USA      / Horizons    
*******************************************************************************
Target body name: (2018 RA1)                      {source: JPL#6}
Center body name: Earth (399)                     {source: DE441}
Center-site name: Gemini South Obs., Cerro Pachon
*******************************************************************************
Start time      : A.D. 2018-Aug-23 22:31:00.0000 UT      
Stop  time      : A.D. 2018-Aug-24 10:59:00.0000 UT      
Step-size       : 1 minutes
*******************************************************************************
Target pole/equ : undefined
Target radii    : undefined                                                    
Center geodetic : 289.2634, -30.2406227, 2.71233  {E-lon(deg),Lat(deg),Alt(km)}
Center cylindric: 289.2634,5517.21435,-3194.81213 {E-lon(deg),Dxy(km),Dz(km)}
Center pole/equ : ITRF93                          {East-longitude positive}
Center radii    : 6378.137, 6378.137, 6356.752 km {Equator_a, b, pole_c}       
Target primary  : Sun
Vis. interferer : MOON (R_eq= 1737.400) km        {source: DE441}
Rel. light bend : Sun                             {source: DE441}
Rel. lght bnd GM: 1.3271E+11 km^3/s^2                                          
Small-body perts: Yes                             {source: SB441-N16}
Atmos refraction: NO (AIRLESS)
RA format       : HMS
Time format     : CAL 
Calendar mode   : Mixed Julian/Gregorian
RTS-only print  : NO       
EOP file        : eop.250310.p250606                                           
EOP coverage    : DATA-BASED 1962-JAN-20 TO 2025-MAR-10. PREDICTS-> 2025-JUN-05
Units conversion: 1 au= 149597870.700 km, c= 299792.458 km/s, 1 day= 86400.0 s 
Table cut-offs 1: Elevation (-90.0deg=NO ),Airmass (>38.000=NO), Daylight (YES)
Table cut-offs 2: Solar elongation (  0.0,180.0=NO ),Local Hour Angle( 0.0=NO )
Table cut-offs 3: RA/DEC angular rate (     0.0=NO )                           
*******************************************************************************
Initial IAU76/J2000 heliocentric ecliptic osculating elements (au, days, deg.):
  EPOCH=  2458369.5 ! 2018-Sep-08.00 (TDB)         Residual RMS= .21275        
   EC= .3232115344739424   QR= .7703453101153647   TP= 2458436.6763547547      
   OM= 166.2054176892707   W=  269.7217787981747   IN= 8.763099478405824       
  Equivalent ICRF heliocentric cartesian coordinates (au, au/d):
   X= 9.899686155013647E-01  Y=-2.468208982240139E-01  Z=-1.030323866474361E-01
  VX=-9.411283005844916E-04 VY= 1.717513364149167E-02 VZ= 4.613440841260365E-03
Asteroid physical parameters (km, seconds, rotational period in hours):        
   GM= n.a.                RAD= n.a.               ROTPER= n.a.                
   H= 26.4                 G= .150                 B-V= n.a.                   
                           ALBEDO= n.a.            STYP= n.a.                  
*******************************************************************************
 Date__(UT)__HR:MN     R.A._________(ICRF)_________DEC
******************************************************
$$SOE
 2018-Aug-23 22:31 Cm  22 31 20.057223 +15 47 04.71396
 2018-Aug-23 22:32 Cm  22 31 20.052523 +15 47 04.60862
 2018-Aug-23 22:33 Cm  22 31 20.047729 +15 47 04.50329
 2018-Aug-23 22:34 Cm  22 31 20.042842 +15 47 04.39799
 2018-Aug-23 22:35 Cm  22 31 20.037860 +15 47 04.29270
 2018-Aug-23 22:36 Cm  22 31 20.032785 +15 47 04.18742
 2018-Aug-23 22:37 Cm  22 31 20.027616 +15 47 04.08216
 2018-Aug-23 22:38 Cm  22 31 20.022353 +15 47 03.97691
 2018-Aug-23 22:39 Cm  22 31 20.016996 +15 47 03.87167
 2018-Aug-23 22:40 Cm  22 31 20.011545 +15 47 03.76644
 2018-Aug-23 22:41 Cm  22 31 20.006000 +15 47 03.66122
 2018-Aug-23 22:42 Cm  22 31 20.000360 +15 47 03.55600
 2018-Aug-23 22:43 Cm  22 31 19.994627 +15 47 03.45078
 2018-Aug-23 22:44 Cm  22 31 19.988798 +15 47 03.34556
 2018-Aug-23 22:45 Cm  22 31 19.982876 +15 47 03.24035
 2018-Aug-23 22:46 Cm  22 31 19.976859 +15 47 03.13514
 2018-Aug-23 22:47 Cm  22 31 19.970747 +15 47 03.02992
 2018-Aug-23 22:48 Nm  22 31 19.964541 +15 47 02.92469
 2018-Aug-23 22:49 Nm  22 31 19.958240 +15 47 02.81946
 2018-Aug-23 22:50 Nm  22 31 19.951845 +15 47 02.71423
 2018-Aug-23 22:51 Nm  22 31 19.945355 +15 47 02.60898
 2018-Aug-23 22:52 Nm  22 31 19.938770 +15 47 02.50372
 2018-Aug-23 22:53 Nm  22 31 19.932090 +15 47 02.39845
 2018-Aug-23 22:54 Nm  22 31 19.925316 +15 47 02.29317
 2018-Aug-23 22:55 Nm  22 31 19.918447 +15 47 02.18787
 2018-Aug-23 22:56 Nm  22 31 19.911483 +15 47 02.08255
 2018-Aug-23 22:57 Nm  22 31 19.904424 +15 47 01.97721
 2018-Aug-23 22:58 Nm  22 31 19.897270 +15 47 01.87185
 2018-Aug-23 22:59 Nm  22 31 19.890021 +15 47 01.76647
 2018-Aug-23 23:00 Nm  22 31 19.882677 +15 47 01.66107
 2018-Aug-23 23:01 Nm  22 31 19.875239 +15 47 01.55564
 2018-Aug-23 23:02 Nm  22 31 19.867705 +15 47 01.45018
 2018-Aug-23 23:03 Nm  22 31 19.860076 +15 47 01.34469
 2018-Aug-23 23:04 Nm  22 31 19.852352 +15 47 01.23917
 2018-Aug-23 23:05 Nm  22 31 19.844533 +15 47 01.13362
 2018-Aug-23 23:06 Nm  22 31 19.836619 +15 47 01.02804
 2018-Aug-23 23:07 Nm  22 31 19.828609 +15 47 00.92242
 2018-Aug-23 23:08 Nm  22 31 19.820505 +15 47 00.81677
 2018-Aug-23 23:09 Nm  22 31 19.812306 +15 47 00.71107
 2018-Aug-23 23:10 Nm  22 31 19.804011 +15 47 00.60534
 2018-Aug-23 23:11 Nm  22 31 19.795621 +15 47 00.49956
 2018-Aug-23 23:12 Nm  22 31 19.787136 +15 47 00.39374
 2018-Aug-23 23:13 Nm  22 31 19.778556 +15 47 00.28787
 2018-Aug-23 23:14 Nm  22 31 19.769881 +15 47 00.18196
 2018-Aug-23 23:15 Nm  22 31 19.761110 +15 47 00.07600
 2018-Aug-23 23:16 Am  22 31 19.752244 +15 46 59.96999
 2018-Aug-23 23:17 Am  22 31 19.743284 +15 46 59.86392
 2018-Aug-23 23:18 Am  22 31 19.734228 +15 46 59.75781
 2018-Aug-23 23:19 Am  22 31 19.725077 +15 46 59.65163
 2018-Aug-23 23:20 Am  22 31 19.715831 +15 46 59.54541
 2018-Aug-23 23:21 Am  22 31 19.706489 +15 46 59.43912
 2018-Aug-23 23:22 Am  22 31 19.697053 +15 46 59.33277
 2018-Aug-23 23:23 Am  22 31 19.687521 +15 46 59.22636
 2018-Aug-23 23:24 Am  22 31 19.677895 +15 46 59.11989
 2018-Aug-23 23:25 Am  22 31 19.668173 +15 46 59.01335
 2018-Aug-23 23:26 Am  22 31 19.658357 +15 46 58.90675
 2018-Aug-23 23:27 Am  22 31 19.648445 +15 46 58.80008
 2018-Aug-23 23:28 Am  22 31 19.638438 +15 46 58.69334
 2018-Aug-23 23:29 Am  22 31 19.628337 +15 46 58.58653
 2018-Aug-23 23:30 Am  22 31 19.618140 +15 46 58.47964
 2018-Aug-23 23:31 Am  22 31 19.607849 +15 46 58.37268
 2018-Aug-23 23:32 Am  22 31 19.597463 +15 46 58.26565
 2018-Aug-23 23:33 Am  22 31 19.586981 +15 46 58.15853
 2018-Aug-23 23:34 Ar  22 31 19.576406 +15 46 58.05134
 2018-Aug-23 23:35 Am  22 31 19.565735 +15 46 57.94407
 2018-Aug-23 23:36 Am  22 31 19.554970 +15 46 57.83671
 2018-Aug-23 23:37 Am  22 31 19.544109 +15 46 57.72927
 2018-Aug-23 23:38 Am  22 31 19.533155 +15 46 57.62174
 2018-Aug-23 23:39 Am  22 31 19.522105 +15 46 57.51412
 2018-Aug-23 23:40 Am  22 31 19.510962 +15 46 57.40642
 2018-Aug-23 23:41 Am  22 31 19.499723 +15 46 57.29862
 2018-Aug-23 23:42 Am  22 31 19.488390 +15 46 57.19074
 2018-Aug-23 23:43 Am  22 31 19.476963 +15 46 57.08275
 2018-Aug-23 23:44  m  22 31 19.465442 +15 46 56.97468
 2018-Aug-23 23:45  m  22 31 19.453826 +15 46 56.86650
 2018-Aug-23 23:46  m  22 31 19.442116 +15 46 56.75823
 2018-Aug-23 23:47  m  22 31 19.430311 +15 46 56.64985
 2018-Aug-23 23:48  m  22 31 19.418413 +15 46 56.54138
 2018-Aug-23 23:49  m  22 31 19.406421 +15 46 56.43280
 2018-Aug-23 23:50  m  22 31 19.394334 +15 46 56.32411
 2018-Aug-23 23:51  m  22 31 19.382154 +15 46 56.21532
 2018-Aug-23 23:52  m  22 31 19.369880 +15 46 56.10641
 2018-Aug-23 23:53  m  22 31 19.357512 +15 46 55.99740
 2018-Aug-23 23:54  m  22 31 19.345050 +15 46 55.88828
 2018-Aug-23 23:55  m  22 31 19.332495 +15 46 55.77904
 2018-Aug-23 23:56  m  22 31 19.319846 +15 46 55.66969
 2018-Aug-23 23:57  m  22 31 19.307103 +15 46 55.56022
 2018-Aug-23 23:58  m  22 31 19.294267 +15 46 55.45063
 2018-Aug-23 23:59  m  22 31 19.281338 +15 46 55.34092
 2018-Aug-24 00:00  m  22 31 19.268316 +15 46 55.23109
 2018-Aug-24 00:01  m  22 31 19.255200 +15 46 55.12114
 2018-Aug-24 00:02  m  22 31 19.241991 +15 46 55.01107
 2018-Aug-24 00:03  m  22 31 19.228690 +15 46 54.90086
 2018-Aug-24 00:04  m  22 31 19.215295 +15 46 54.79053
 2018-Aug-24 00:05  m  22 31 19.201808 +15 46 54.68007
 2018-Aug-24 00:06  m  22 31 19.188228 +15 46 54.56948
 2018-Aug-24 00:07  m  22 31 19.174555 +15 46 54.45875
 2018-Aug-24 00:08  m  22 31 19.160789 +15 46 54.34790
 2018-Aug-24 00:09  m  22 31 19.146932 +15 46 54.23690
 2018-Aug-24 00:10  m  22 31 19.132982 +15 46 54.12577
 2018-Aug-24 00:11  m  22 31 19.118939 +15 46 54.01450
 2018-Aug-24 00:12  m  22 31 19.104805 +15 46 53.90309
 2018-Aug-24 00:13  m  22 31 19.090578 +15 46 53.79153
 2018-Aug-24 00:14  m  22 31 19.076260 +15 46 53.67983
 2018-Aug-24 00:15  m  22 31 19.061850 +15 46 53.56799
 2018-Aug-24 00:16  m  22 31 19.047348 +15 46 53.45600
 2018-Aug-24 00:17  m  22 31 19.032754 +15 46 53.34386
 2018-Aug-24 00:18  m  22 31 19.018069 +15 46 53.23157
 2018-Aug-24 00:19  m  22 31 19.003293 +15 46 53.11913
 2018-Aug-24 00:20  m  22 31 18.988425 +15 46 53.00654
 2018-Aug-24 00:21  m  22 31 18.973466 +15 46 52.89379
 2018-Aug-24 00:22  m  22 31 18.958416 +15 46 52.78089
 2018-Aug-24 00:23  m  22 31 18.943276 +15 46 52.66782
 2018-Aug-24 00:24  m  22 31 18.928044 +15 46 52.55460
 2018-Aug-24 00:25  m  22 31 18.912722 +15 46 52.44122
 2018-Aug-24 00:26  m  22 31 18.897309 +15 46 52.32767
 2018-Aug-24 00:27  m  22 31 18.881806 +15 46 52.21396
 2018-Aug-24 00:28  m  22 31 18.866213 +15 46 52.10008
 2018-Aug-24 00:29  m  22 31 18.850530 +15 46 51.98604
 2018-Aug-24 00:30  m  22 31 18.834757 +15 46 51.87183
 2018-Aug-24 00:31  m  22 31 18.818893 +15 46 51.75745
 2018-Aug-24 00:32  m  22 31 18.802940 +15 46 51.64289
 2018-Aug-24 00:33  m  22 31 18.786898 +15 46 51.52816
